CTC2_L_00498001-01
1 30445U 24643B   26070.40849537  .00000000  00000+0  00000-0 0  9999
2 30445 100.8000   0.0000 0000000   0.0000   0.0000 12.77881384    17
CTC2_L_00498001-02
1 30446U 24282WO  26070.40849537  .00000000  00000+0  00000-0 0  9999
2 30446 100.8000   0.0000 0000000   0.0000  45.0000 12.77881384    17
CTC2_L_00498001-03
1 30447U 22622RT  26070.40849537  .00000000  00000+0  00000-0 0  9996
2 30447 100.8000   0.0000 0000000   0.0000  90.0000 12.77881384    18
CTC2_L_00498001-04
1 30448U 22674NY  26070.40849537  .00000000  00000+0  00000-0 0  9994
2 30448 100.8000   0.0000 0000000   0.0000 135.0000 12.77881384    19
CTC2_L_00498001-05
1 30449U 23821EU  26070.40849537  .00000000  00000+0  00000-0 0  9990
2 30449 100.8000   0.0000 0000000   0.0000 180.0000 12.77881384    10
CTC2_L_00498001-06
1 30450U 26192NT  26070.40849537  .00000000  00000+0  00000-0 0  9996
2 30450 100.8000   0.0000 0000000   0.0000 225.0000 12.77881384    12
CTC2_L_00498001-07
1 30451U 24169SE  26070.40849537  .00000000  00000+0  00000-0 0  9999
2 30451 100.8000   0.0000 0000000   0.0000 270.0000 12.77881384    13
CTC2_L_00498001-08
1 30452U 24377L   26070.40849537  .00000000  00000+0  00000-0 0  9991
2 30452 100.8000   0.0000 0000000   0.0000 315.0000 12.77881384    14
CTC2_L_00498002-01
1 30453U 22146KC  26070.40849537  .00000000  00000+0  00000-0 0  9994
2 30453 100.8000  12.0000 0000000   0.0000   6.0000 12.77881384    15
CTC2_L_00498002-02
1 30454U 24576UW  26070.40849537  .00000000  00000+0  00000-0 0  9994
2 30454 100.8000  12.0000 0000000   0.0000  51.0000 12.77881384    16
CTC2_L_00498002-03
1 30455U 25805EL  26070.40849537  .00000000  00000+0  00000-0 0  9991
2 30455 100.8000  12.0000 0000000   0.0000  96.0000 12.77881384    16
CTC2_L_00498002-04
1 30456U 22940UZ  26070.40849537  .00000000  00000+0  00000-0 0  9999
2 30456 100.8000  12.0000 0000000   0.0000 141.0000 12.77881384    18
CTC2_L_00498002-05
1 30457U 25533RS  26070.40849537  .00000000  00000+0  00000-0 0  9991
2 30457 100.8000  12.0000 0000000   0.0000 186.0000 12.77881384    18
CTC2_L_00498002-06
1 30458U 23888TX  26070.40849537  .00000000  00000+0  00000-0 0  9993
2 30458 100.8000  12.0000 0000000   0.0000 231.0000 12.77881384    10
CTC2_L_00498002-07
1 30459U 24874D   26070.40849537  .00000000  00000+0  00000-0 0  9990
2 30459 100.8000  12.0000 0000000   0.0000 276.0000 12.77881384    10
CTC2_L_00498002-08
1 30460U 25022DB  26070.40849537  .00000000  00000+0  00000-0 0  9998
2 30460 100.8000  12.0000 0000000   0.0000 321.0000 12.77881384    13
CTC2_L_00498003-01
1 30461U 26690PP  26070.40849537  .00000000  00000+0  00000-0 0  9991
2 30461 100.8000  24.0000 0000000   0.0000  12.0000 12.77881384    14
CTC2_L_00498003-02
1 30462U 25127HR  26070.40849537  .00000000  00000+0  00000-0 0  9996
2 30462 100.8000  24.0000 0000000   0.0000  57.0000 12.77881384    14
CTC2_L_00498003-03
1 30463U 23260YC  26070.40849537  .00000000  00000+0  00000-0 0  9993
2 30463 100.8000  24.0000 0000000   0.0000 102.0000 12.77881384    16
CTC2_L_00498003-04
1 30464U 26915KN  26070.40849537  .00000000  00000+0  00000-0 0  9994
2 30464 100.8000  24.0000 0000000   0.0000 147.0000 12.77881384    16
CTC2_L_00498003-05
1 30465U 22932TF  26070.40849537  .00000000  00000+0  00000-0 0  9990
2 30465 100.8000  24.0000 0000000   0.0000 192.0000 12.77881384    17
CTC2_L_00498003-06
1 30466U 22609ZZ  26070.40849537  .00000000  00000+0  00000-0 0  9992
2 30466 100.8000  24.0000 0000000   0.0000 237.0000 12.77881384    18
CTC2_L_00498003-07
1 30467U 23322LP  26070.40849537  .00000000  00000+0  00000-0 0  9996
2 30467 100.8000  24.0000 0000000   0.0000 282.0000 12.77881384    19
CTC2_L_00498003-08
1 30468U 23258AK  26070.40849537  .00000000  00000+0  00000-0 0  9995
2 30468 100.8000  24.0000 0000000   0.0000 327.0000 12.77881384    10
CTC2_L_00498004-01
1 30469U 25226UN  26070.40849537  .00000000  00000+0  00000-0 0  9993
2 30469 100.8000  36.0000 0000000   0.0000  18.0000 12.77881384    11
CTC2_L_00498004-02
1 30470U 26938PR  26070.40849537  .00000000  00000+0  00000-0 0  9996
2 30470 100.8000  36.0000 0000000   0.0000  63.0000 12.77881384    13
CTC2_L_00498004-03
1 30471U 26964KY  26070.40849537  .00000000  00000+0  00000-0 0  9996
2 30471 100.8000  36.0000 0000000   0.0000 108.0000 12.77881384    14
CTC2_L_00498004-04
1 30472U 25036OU  26070.40849537  .00000000  00000+0  00000-0 0  9996
2 30472 100.8000  36.0000 0000000   0.0000 153.0000 12.77881384    15
CTC2_L_00498004-05
1 30473U 26433UQ  26070.40849537  .00000000  00000+0  00000-0 0  9999
2 30473 100.8000  36.0000 0000000   0.0000 198.0000 12.77881384    15
CTC2_L_00498004-06
1 30474U 26635GC  26070.40849537  .00000000  00000+0  00000-0 0  9994
2 30474 100.8000  36.0000 0000000   0.0000 243.0000 12.77881384    17
CTC2_L_00498004-07
1 30475U 25453F   26070.40849537  .00000000  00000+0  00000-0 0  9992
2 30475 100.8000  36.0000 0000000   0.0000 288.0000 12.77881384    17
CTC2_L_00498004-08
1 30476U 25902GQ  26070.40849537  .00000000  00000+0  00000-0 0  9992
2 30476 100.8000  36.0000 0000000   0.0000 333.0000 12.77881384    19
CTC2_L_00498005-01
1 30477U 23589JW  26070.40849537  .00000000  00000+0  00000-0 0  9992
2 30477 100.8000  48.0000 0000000   0.0000  24.0000 12.77881384    10
CTC2_L_00498005-02
1 30478U 22308CX  26070.40849537  .00000000  00000+0  00000-0 0  9991
2 30478 100.8000  48.0000 0000000   0.0000  69.0000 12.77881384    10
CTC2_L_00498005-03
1 30479U 25985UQ  26070.40849537  .00000000  00000+0  00000-0 0  9996
2 30479 100.8000  48.0000 0000000   0.0000 114.0000 12.77881384    12
CTC2_L_00498005-04
1 30480U 26932RR  26070.40849537  .00000000  00000+0  00000-0 0  9991
2 30480 100.8000  48.0000 0000000   0.0000 159.0000 12.77881384    13
CTC2_L_00498005-05
1 30481U 22473TC  26070.40849537  .00000000  00000+0  00000-0 0  9998
2 30481 100.8000  48.0000 0000000   0.0000 204.0000 12.77881384    15
CTC2_L_00498005-06
1 30482U 25109HH  26070.40849537  .00000000  00000+0  00000-0 0  9998
2 30482 100.8000  48.0000 0000000   0.0000 249.0000 12.77881384    15
CTC2_L_00498005-07
1 30483U 25221DV  26070.40849537  .00000000  00000+0  00000-0 0  9994
2 30483 100.8000  48.0000 0000000   0.0000 294.0000 12.77881384    16
CTC2_L_00498005-08
1 30484U 24648BZ  26070.40849537  .00000000  00000+0  00000-0 0  9997
2 30484 100.8000  48.0000 0000000   0.0000 339.0000 12.77881384    17
CTC2_L_00498006-01
1 30485U 25624AJ  26070.40849537  .00000000  00000+0  00000-0 0  9993
2 30485 100.8000  60.0000 0000000   0.0000  30.0000 12.77881384    10
CTC2_L_00498006-02
1 30486U 23612LX  26070.40849537  .00000000  00000+0  00000-0 0  9999
2 30486 100.8000  60.0000 0000000   0.0000  75.0000 12.77881384    10
CTC2_L_00498006-03
1 30487U 26544XJ  26070.40849537  .00000000  00000+0  00000-0 0  9997
2 30487 100.8000  60.0000 0000000   0.0000 120.0000 12.77881384    12
CTC2_L_00498006-04
1 30488U 26669KR  26070.40849537  .00000000  00000+0  00000-0 0  9996
2 30488 100.8000  60.0000 0000000   0.0000 165.0000 12.77881384    12
CTC2_L_00498006-05
1 30489U 26698HO  26070.40849537  .00000000  00000+0  00000-0 0  9999
2 30489 100.8000  60.0000 0000000   0.0000 210.0000 12.77881384    14
CTC2_L_00498006-06
1 30490U 26146UK  26070.40849537  .00000000  00000+0  00000-0 0  9999
2 30490 100.8000  60.0000 0000000   0.0000 255.0000 12.77881384    15
CTC2_L_00498006-07
1 30491U 24129JZ  26070.40849537  .00000000  00000+0  00000-0 0  9999
2 30491 100.8000  60.0000 0000000   0.0000 300.0000 12.77881384    17
CTC2_L_00498006-08
1 30492U 26284RO  26070.40849537  .00000000  00000+0  00000-0 0  9994
2 30492 100.8000  60.0000 0000000   0.0000 345.0000 12.77881384    17
CTC2_L_00498007-01
1 30493U 25227OO  26070.40849537  .00000000  00000+0  00000-0 0  9991
2 30493 100.8000  72.0000 0000000   0.0000  36.0000 12.77881384    18
CTC2_L_00498007-02
1 30494U 22953CQ  26070.40849537  .00000000  00000+0  00000-0 0  9995
2 30494 100.8000  72.0000 0000000   0.0000  81.0000 12.77881384    19
CTC2_L_00498007-03
1 30495U 23275CA  26070.40849537  .00000000  00000+0  00000-0 0  9994
2 30495 100.8000  72.0000 0000000   0.0000 126.0000 12.77881384    10
CTC2_L_00498007-04
1 30496U 26476UC  26070.40849537  .00000000  00000+0  00000-0 0  9991
2 30496 100.8000  72.0000 0000000   0.0000 171.0000 12.77881384    11
CTC2_L_00498007-05
1 30497U 22109IN  26070.40849537  .00000000  00000+0  00000-0 0  9991
2 30497 100.8000  72.0000 0000000   0.0000 216.0000 12.77881384    12
CTC2_L_00498007-06
1 30498U 26948AG  26070.40849537  .00000000  00000+0  00000-0 0  9997
2 30498 100.8000  72.0000 0000000   0.0000 261.0000 12.77881384    13
CTC2_L_00498007-07
1 30499U 26424TF  26070.40849537  .00000000  00000+0  00000-0 0  9997
2 30499 100.8000  72.0000 0000000   0.0000 306.0000 12.77881384    14
CTC2_L_00498007-08
1 30500U 22002HD  26070.40849537  .00000000  00000+0  00000-0 0  9998
2 30500 100.8000  72.0000 0000000   0.0000 351.0000 12.77881384    17
CTC2_L_00498008-01
1 30501U 24909PV  26070.40849537  .00000000  00000+0  00000-0 0  9997
2 30501 100.8000  84.0000 0000000   0.0000  42.0000 12.77881384    18
CTC2_L_00498008-02
1 30502U 24779RH  26070.40849537  .00000000  00000+0  00000-0 0  9993
2 30502 100.8000  84.0000 0000000   0.0000  87.0000 12.77881384    18
CTC2_L_00498008-03
1 30503U 22446UE  26070.40849537  .00000000  00000+0  00000-0 0  9993
2 30503 100.8000  84.0000 0000000   0.0000 132.0000 12.77881384    10
CTC2_L_00498008-04
1 30504U 26852PT  26070.40849537  .00000000  00000+0  00000-0 0  9999
2 30504 100.8000  84.0000 0000000   0.0000 177.0000 12.77881384    10
CTC2_L_00498008-05
1 30505U 22408ML  26070.40849537  .00000000  00000+0  00000-0 0  9993
2 30505 100.8000  84.0000 0000000   0.0000 222.0000 12.77881384    12
CTC2_L_00498008-06
1 30506U 24530SR  26070.40849537  .00000000  00000+0  00000-0 0  9992
2 30506 100.8000  84.0000 0000000   0.0000 267.0000 12.77881384    12
